STARLINK-31920
1 59907U 24100Y   26090.08273569  .00136837  00000+0  34592-2 0  9996
2 59907  42.9985 329.8999 0013148 254.0692 105.8715 15.38487283104813
